{"fetched_at":"2026-07-16T06:43:17.516Z","source":"https://celestrak.org/NORAD/elements/gp.php?NAME=SENTINEL&FORMAT=JSON","constellation":"sentinel-5p","records":[{"OBJECT_NAME":"SENTINEL-5P","OBJECT_ID":"2017-064A","EPOCH":"2026-07-15T19:39:34.591104","CLASSIFICATION_TYPE":"U","MEAN_MOTION":14.1952335,"ECCENTRICITY":0.00011361,"INCLINATION":98.7929,"RA_OF_ASC_NODE":138.7478,"ARG_OF_PERICENTER":93.165,"MEAN_ANOMALY":266.9656,"EPHEMERIS_TYPE":0,"NORAD_CAT_ID":42969,"ELEMENT_SET_NO":999,"REV_AT_EPOCH":45362,"BSTAR":0.000024073677,"MEAN_MOTION_DOT":6e-8,"MEAN_MOTION_DDOT":0}]}
